GLOBALSTAR M067 [+]     
1 32263U 07048A   24080.58689329 -.00000058  00000+0  28891-3 0  9993
2 32263  51.9716 283.1714 0001751  92.3984 285.1778 12.40640079753187
GLOBALSTAR M070 [+]     
1 32264U 07048B   24080.36433161 -.00000083  00000+0  11811-3 0  9993
2 32264  51.9749  70.9954 0000431 136.0546  11.3888 12.62288224756353
GLOBALSTAR M066 [+]     
1 32265U 07048C   24080.00690292 -.00000050  00000+0  29947-3 0  9998
2 32265  51.9672 294.0870 0001271  64.1801  83.2888 12.62257834758570
GLOBALSTAR M068 [-]     
1 32266U 07048D   24079.75976021 -.00000057  00000+0  26047-3 0  9991
2 32266  51.9869 247.4553 0000899 156.9243 311.1181 12.62782213760143
GLOBALSTAR M079 [+]     
1 37188U 10054A   24080.47618197 -.00000085  00000+0  10516-3 0  9993
2 37188  52.0032  80.9535 0000480  64.6404 103.8229 12.62267460619150
GLOBALSTAR M074 [+]     
1 37189U 10054B   24080.33047796 -.00000094  00000+0  52304-4 0  9992
2 37189  52.0009  80.7904 0000349  98.8030   6.7260 12.62266221619746
GLOBALSTAR M076 [+]     
1 37190U 10054C   24080.19295856 -.00000088  00000+0  89686-4 0  9996
2 37190  52.0021  81.3393 0000863  92.6361 347.4993 12.62275640619441
GLOBALSTAR M077 [+]     
1 37191U 10054D   24080.27389083 -.00000096  00000+0  46164-4 0  9995
2 37191  52.0092  37.8183 0000470  86.9240  60.7532 12.62270233619828
